[{"OBJECT_NAME":"TIANQI-29","OBJECT_ID":"2024-170A","EPOCH":"2026-03-09T20:46:41.243232","MEAN_MOTION":13.99108812,"ECCENTRICITY":0.00055066,"INCLINATION":44.8559,"RA_OF_ASC_NODE":219.5799,"ARG_OF_PERICENTER":342.0099,"MEAN_ANOMALY":18.0536,"EPHEMERIS_TYPE":0,"CLASSIFICATION_TYPE":"U","NORAD_CAT_ID":61195,"ELEMENT_SET_NO":999,"REV_AT_EPOCH":7495,"BSTAR":0.00015072092,"MEAN_MOTION_DOT":9.2e-7,"MEAN_MOTION_DDOT":0},{"OBJECT_NAME":"THORAD AGENA D DEB","OBJECT_ID":"1970-025DW","EPOCH":"2026-03-08T15:34:38.154144","MEAN_MOTION":14.01817432,"ECCENTRICITY":0.00172361,"INCLINATION":100.1296,"RA_OF_ASC_NODE":11.8025,"ARG_OF_PERICENTER":289.864,"MEAN_ANOMALY":194.4284,"EPHEMERIS_TYPE":0,"CLASSIFICATION_TYPE":"U","NORAD_CAT_ID":4776,"ELEMENT_SET_NO":999,"REV_AT_EPOCH":72342,"BSTAR":0.0022077722,"MEAN_MOTION_DOT":3.308e-5,"MEAN_MOTION_DDOT":0}]
